OBJECT_NAME,OBJECT_ID,EPOCH,MEAN_MOTION,ECCENTRICITY,INCLINATION,RA_OF_ASC_NODE,ARG_OF_PERICENTER,MEAN_ANOMALY,EPHEMERIS_TYPE,CLASSIFICATION_TYPE,NORAD_CAT_ID,ELEMENT_SET_NO,REV_AT_EPOCH,BSTAR,MEAN_MOTION_DOT,MEAN_MOTION_DDOT
GLOBALSTAR M069,2007-020C,2026-06-09T13:59:05.765568,12.23470912,.00024925,52.0041,273.6502,132.4333,241.9592,0,U,31573,999,87787,-.45019258E-4,-.97E-6,0
GLOBALSTAR M072,2007-020D,2026-06-09T14:42:03.996000,11.91658470,.00013903,51.9912,120.4104,310.9452,224.0004,0,U,31574,999,87407,.1690593E-3,-.72E-6,0
GLOBALSTAR M066,2007-048C,2026-06-09T13:07:43.923360,12.30388491,.00053565,51.9592,79.8443,27.7526,148.8884,0,U,32265,999,85928,-.323566E-3,-.133E-5,0
GLOBALSTAR M079,2010-054A,2026-06-09T15:20:13.612416,12.62266010,.00005366,52.0019,131.6467,4.4770,171.6479,0,U,37188,999,72159,.81931979E-4,-.89E-6,0
GLOBALSTAR M074,2010-054B,2026-06-09T05:38:05.640000,12.62268424,.0000367,51.9995,132.1436,45.3710,333.0078,0,U,37189,999,72215,.54346E-4,-.94E-6,0
GLOBALSTAR M076,2010-054C,2026-06-09T16:36:09.377280,12.62261834,.00005758,52.0009,130.9546,33.4605,142.8092,0,U,37190,999,72192,.47937812E-4,-.95E-6,0
GLOBALSTAR M077,2010-054D,2026-06-09T09:46:22.284768,11.67547589,.00028574,51.9930,199.0437,158.6106,219.8404,0,U,37191,999,72023,.71244313E-4,-.74E-6,0
GLOBALSTAR M075,2010-054E,2026-06-09T18:49:39.377856,12.62267361,.0000028,51.9920,172.7328,125.3476,52.1492,0,U,37192,999,72100,.78804927E-4,-.9E-6,0
GLOBALSTAR M073,2010-054F,2026-06-09T13:07:34.838400,12.62262125,.00007734,52.0061,87.5487,32.5972,143.5473,0,U,37193,999,72296,-.13528664E-4,-.106E-5,0
GLOBALSTAR M083,2011-033A,2026-06-09T09:38:08.272032,12.62262946,.00008428,51.9872,36.2311,55.6570,120.6525,0,U,37739,999,69196,.19828639E-4,-.1E-5,0
GLOBALSTAR M088,2011-033B,2026-06-09T15:46:39.993312,12.62268589,.00008278,52.0228,301.8628,115.3216,262.7505,0,U,37740,999,68754,.49417919E-4,-.95E-6,0
GLOBALSTAR M091,2011-033C,2026-06-09T14:38:32.801568,12.62263776,.0000475,52.0003,264.9834,138.8380,325.2384,0,U,37741,999,68832,.45628908E-4,-.96E-6,0
GLOBALSTAR M085,2011-033D,2026-06-09T10:04:25.008960,12.62263946,.00001823,52.0110,216.8484,190.0031,188.6885,0,U,37742,999,68881,.56721886E-4,-.94E-6,0
GLOBALSTAR M081,2011-033E,2026-06-09T21:03:14.302368,12.62264835,.00002071,51.9939,217.9004,128.2785,50.0314,0,U,37743,999,68901,.61581933E-4,-.93E-6,0
GLOBALSTAR M089,2011-033F,2026-06-09T07:51:18.797760,12.62267046,.00003615,51.9904,173.7346,101.1506,277.7004,0,U,37744,999,68979,.12192919E-3,-.82E-6,0
GLOBALSTAR M084,2011-080A,2026-06-09T10:54:01.566720,12.62267505,.00010336,52.0027,40.8240,74.1372,101.5231,0,U,38040,999,66778,-.313173E-5,-.104E-5,0
GLOBALSTAR M080,2011-080B,2026-06-09T10:12:50.997600,12.62269275,.00003017,52.0076,42.6265,68.2717,107.3877,0,U,38041,999,66790,.3537664E-5,-.103E-5,0
GLOBALSTAR M082,2011-080C,2026-06-09T20:10:56.000352,12.62269936,.00005399,52.0097,356.8622,89.0614,105.0212,0,U,38042,999,66866,.80473103E-4,-.89E-6,0
GLOBALSTAR M092,2011-080D,2026-06-09T13:45:36.137088,12.62266896,.00005643,52.0085,88.0728,52.8711,123.6136,0,U,38043,999,66708,.25059971E-4,-.99E-6,0
GLOBALSTAR M090,2011-080E,2026-06-09T16:24:03.289824,12.62269030,.00008052,52.0144,351.2955,82.2342,354.4712,0,U,38044,999,66876,.68835064E-4,-.91E-6,0
GLOBALSTAR M086,2011-080F,2026-06-09T16:56:50.566848,12.62286607,.00016385,51.9913,351.1683,54.5273,26.1730,0,U,38045,999,66871,.11470405E-3,-.83E-6,0
GLOBALSTAR M097,2013-005A,2026-06-09T13:27:58.567392,12.62247170,.00004384,52.0053,266.5507,123.4580,236.6329,0,U,39072,999,61594,.16004358E-4,-.101E-5,0
GLOBALSTAR M093,2013-005B,2026-06-09T12:49:33.932928,12.62265753,.00003084,52.0109,259.9758,106.8967,253.1934,0,U,39073,999,61589,.47140746E-4,-.95E-6,0
GLOBALSTAR M094,2013-005C,2026-06-09T07:07:22.370880,12.62268549,.00002106,51.9929,174.8235,337.2221,22.8636,0,U,39074,999,61747,.79788429E-4,-.89E-6,0
GLOBALSTAR M096,2013-005D,2026-06-09T11:14:47.910048,12.62265414,.00001712,52.0059,223.0966,165.8515,194.2356,0,U,39075,999,61641,.56147433E-4,-.94E-6,0
GLOBALSTAR M078,2013-005E,2026-06-09T16:17:57.814368,12.62258891,.00005687,51.9891,306.4738,199.5584,160.5261,0,U,39076,999,61506,-.39299287E-3,-.174E-5,0
GLOBALSTAR M095,2013-005F,2026-06-09T16:56:30.955776,12.62263362,.00003714,52.0095,303.9860,122.3997,237.6906,0,U,39077,999,61492,.36469594E-4,-.97E-6,0
GLOBALSTAR M087,2022-064A,2026-06-09T02:03:25.986816,12.62268960,.00005917,51.9997,87.1163,19.9401,340.1489,0,U,52888,999,19011,.58462702E-4,-.93E-6,0
